{
  "type": "FeatureCollection",
  "features": [
    {
      "type": "Feature",
      "properties": {
        "norad_id": 34121,
        "name": "COSMOS 2251 DEB",
        "group": "cosmos-2251-debris",
        "lat": 20.220686617864622,
        "lon": -79.34010248245599,
        "alt_km": 1078.9539570659317,
        "timestamp": "2025-12-07T03:52:32.896281+00:00",
        "meta_object_name": "COSMOS 2251 DEB",
        "meta_object_id": "1993-036KS",
        "meta_epoch": "2025-12-06T15:31:41.632896",
        "meta_mean_motion": 13.91897511,
        "meta_eccentricity": 0.02399092,
        "meta_inclination": 73.9926,
        "meta_ra_of_asc_node": 107.6107,
        "meta_arg_of_pericenter": 314.3644,
        "meta_mean_anomaly": 148.6664,
        "meta_ephemeris_type": 0,
        "meta_classification_type": "U",
        "meta_norad_cat_id": 34121,
        "meta_element_set_no": 999,
        "meta_rev_at_epoch": 85040,
        "meta_bstar": 0.0018635236,
        "meta_mean_motion_dot": 2.979e-05,
        "meta_mean_motion_ddot": 0,
        "tle_line1": "1 34121U 93036KS  25340.64700964  .00002979  00000+0  18635-2 0  9993",
        "tle_line2": "2 34121  73.9926 107.6107 0239909 314.3644 148.6664 13.91897511850405"
      },
      "geometry": {
        "type": "Point",
        "coordinates": [
          -79.34010248245599,
          20.220686617864622
        ]
      }
    },
    {
      "type": "Feature",
      "properties": {
        "norad_id": 34122,
        "name": "COSMOS 2251 DEB",
        "group": "cosmos-2251-debris",
        "lat": 22.9592571531153,
        "lon": 136.33129239222995,
        "alt_km": 617.4276939577749,
        "timestamp": "2025-12-07T03:52:32.896292+00:00",
        "meta_object_name": "COSMOS 2251 DEB",
        "meta_object_id": "1993-036KT",
        "meta_epoch": "2025-12-05T11:04:07.095072",
        "meta_mean_motion": 14.64905259,
        "meta_eccentricity": 0.00839377,
        "meta_inclination": 74.0353,
        "meta_ra_of_asc_node": 132.6349,
        "meta_arg_of_pericenter": 31.593,
        "meta_mean_anomaly": 29.2974,
        "meta_ephemeris_type": 0,
        "meta_classification_type": "U",
        "meta_norad_cat_id": 34122,
        "meta_element_set_no": 999,
        "meta_rev_at_epoch": 88578,
        "meta_bstar": 0.0020929875,
        "meta_mean_motion_dot": 0.00011775,
        "meta_mean_motion_ddot": 0,
        "tle_line1": "1 34122U 93036KT  25339.46119323  .00011775  00000+0  20930-2 0  9990",
        "tle_line2": "2 34122  74.0353 132.6349 0083937  31.5930  29.2974 14.64905259885789"
      },
      "geometry": {
        "type": "Point",
        "coordinates": [
          136.33129239222995,
          22.9592571531153
        ]
      }
    },
    {
      "type": "Feature",
      "properties": {
        "norad_id": 34127,
        "name": "COSMOS 2251 DEB",
        "group": "cosmos-2251-debris",
        "lat": -62.22376867588917,
        "lon": -93.48558900459213,
        "alt_km": 712.3250897772723,
        "timestamp": "2025-12-07T03:52:32.896302+00:00",
        "meta_object_name": "COSMOS 2251 DEB",
        "meta_object_id": "1993-036KY",
        "meta_epoch": "2025-12-06T05:03:11.876832",
        "meta_mean_motion": 14.31439165,
        "meta_eccentricity": 0.01147761,
        "meta_inclination": 74.18,
        "meta_ra_of_asc_node": 55.6634,
        "meta_arg_of_pericenter": 257.2051,
        "meta_mean_anomaly": 131.4114,
        "meta_ephemeris_type": 0,
        "meta_classification_type": "U",
        "meta_norad_cat_id": 34127,
        "meta_element_set_no": 999,
        "meta_rev_at_epoch": 86678,
        "meta_bstar": 0.0031030837,
        "meta_mean_motion_dot": 8.838e-05,
        "meta_mean_motion_ddot": 0,
        "tle_line1": "1 34127U 93036KY  25340.21055413  .00008838  00000+0  31031-2 0  9999",
        "tle_line2": "2 34127  74.1800  55.6634 0114776 257.2051 131.4114 14.31439165866783"
      },
      "geometry": {
        "type": "Point",
        "coordinates": [
          -93.48558900459213,
          -62.22376867588917
        ]
      }
    },
    {
      "type": "Feature",
      "properties": {
        "norad_id": 34128,
        "name": "COSMOS 2251 DEB",
        "group": "cosmos-2251-debris",
        "lat": 38.205389521114675,
        "lon": 115.05166967357187,
        "alt_km": 557.8894482272717,
        "timestamp": "2025-12-07T03:52:32.896313+00:00",
        "meta_object_name": "COSMOS 2251 DEB",
        "meta_object_id": "1993-036KZ",
        "meta_epoch": "2025-12-06T08:43:23.006208",
        "meta_mean_motion": 15.00695594,
        "meta_eccentricity": 0.00261262,
        "meta_inclination": 73.9999,
        "meta_ra_of_asc_node": 309.7309,
        "meta_arg_of_pericenter": 62.5901,
        "meta_mean_anomaly": 87.3375,
        "meta_ephemeris_type": 0,
        "meta_classification_type": "U",
        "meta_norad_cat_id": 34128,
        "meta_element_set_no": 999,
        "meta_rev_at_epoch": 89071,
        "meta_bstar": 0.00383534,
        "meta_mean_motion_dot": 0.00049236,
        "meta_mean_motion_ddot": 0,
        "tle_line1": "1 34128U 93036KZ  25340.36346072  .00049236  00000+0  38353-2 0  9991",
        "tle_line2": "2 34128  73.9999 309.7309 0026126  62.5901  87.3375 15.00695594890719"
      },
      "geometry": {
        "type": "Point",
        "coordinates": [
          115.05166967357187,
          38.205389521114675
        ]
      }
    },
    {
      "type": "Feature",
      "properties": {
        "norad_id": 34129,
        "name": "COSMOS 2251 DEB",
        "group": "cosmos-2251-debris",
        "lat": -23.57222017241078,
        "lon": 177.6169173051764,
        "alt_km": 663.3090930078333,
        "timestamp": "2025-12-07T03:52:32.896323+00:00",
        "meta_object_name": "COSMOS 2251 DEB",
        "meta_object_id": "1993-036LA",
        "meta_epoch": "2025-12-06T07:25:45.240096",
        "meta_mean_motion": 14.75569854,
        "meta_eccentricity": 0.00327236,
        "meta_inclination": 74.0347,
        "meta_ra_of_asc_node": 352.1073,
        "meta_arg_of_pericenter": 75.7953,
        "meta_mean_anomaly": 284.6853,
        "meta_ephemeris_type": 0,
        "meta_classification_type": "U",
        "meta_norad_cat_id": 34129,
        "meta_element_set_no": 999,
        "meta_rev_at_epoch": 61203,
        "meta_bstar": 0.002159199,
        "meta_mean_motion_dot": 0.00014849,
        "meta_mean_motion_ddot": 0,
        "tle_line1": "1 34129U 93036LA  25340.30955139  .00014849  00000+0  21592-2 0  9995",
        "tle_line2": "2 34129  74.0347 352.1073 0032723  75.7953 284.6853 14.75569854612032"
      },
      "geometry": {
        "type": "Point",
        "coordinates": [
          177.6169173051764,
          -23.57222017241078
        ]
      }
    },
    {
      "type": "Feature",
      "properties": {
        "norad_id": 34136,
        "name": "COSMOS 2251 DEB",
        "group": "cosmos-2251-debris",
        "lat": -73.93863768148015,
        "lon": -30.768573492050276,
        "alt_km": 639.3442354366534,
        "timestamp": "2025-12-07T03:52:32.896333+00:00",
        "meta_object_name": "COSMOS 2251 DEB",
        "meta_object_id": "1993-036LH",
        "meta_epoch": "2025-12-06T15:59:08.535264",
        "meta_mean_motion": 14.8001029,
        "meta_eccentricity": 0.00862659,
        "meta_inclination": 74.0215,
        "meta_ra_of_asc_node": 54.6107,
        "meta_arg_of_pericenter": 179.2037,
        "meta_mean_anomaly": 332.8361,
        "meta_ephemeris_type": 0,
        "meta_classification_type": "U",
        "meta_norad_cat_id": 34136,
        "meta_element_set_no": 999,
        "meta_rev_at_epoch": 89920,
        "meta_bstar": 0.00092474637,
        "meta_mean_motion_dot": 7.428e-05,
        "meta_mean_motion_ddot": 0,
        "tle_line1": "1 34136U 93036LH  25340.66607101  .00007428  00000+0  92475-3 0  9999",
        "tle_line2": "2 34136  74.0215  54.6107 0086265 179.2037 332.8361 14.80010290899206"
      },
      "geometry": {
        "type": "Point",
        "coordinates": [
          -30.768573492050276,
          -73.93863768148015
        ]
      }
    },
    {
      "type": "Feature",
      "properties": {
        "norad_id": 34139,
        "name": "COSMOS 2251 DEB",
        "group": "cosmos-2251-debris",
        "lat": 51.404135906307275,
        "lon": -74.28337873398434,
        "alt_km": 685.0920096647287,
        "timestamp": "2025-12-07T03:52:32.896344+00:00",
        "meta_object_name": "COSMOS 2251 DEB",
        "meta_object_id": "1993-036LL",
        "meta_epoch": "2025-12-05T22:19:35.867136",
        "meta_mean_motion": 14.58911278,
        "meta_eccentricity": 0.00425861,
        "meta_inclination": 74.0319,
        "meta_ra_of_asc_node": 267.0391,
        "meta_arg_of_pericenter": 339.131,
        "meta_mean_anomaly": 90.9886,
        "meta_ephemeris_type": 0,
        "meta_classification_type": "U",
        "meta_norad_cat_id": 34139,
        "meta_element_set_no": 999,
        "meta_rev_at_epoch": 88050,
        "meta_bstar": 0.0025037746,
        "meta_mean_motion_dot": 0.00011873,
        "meta_mean_motion_ddot": 0,
        "tle_line1": "1 34139U 93036LL  25339.93027624  .00011873  00000+0  25038-2 0  9995",
        "tle_line2": "2 34139  74.0319 267.0391 0042586 339.1310  90.9886 14.58911278880506"
      },
      "geometry": {
        "type": "Point",
        "coordinates": [
          -74.28337873398434,
          51.404135906307275
        ]
      }
    }
  ]
}